OBJECT_NAME,OBJECT_ID,EPOCH,MEAN_MOTION,ECCENTRICITY,INCLINATION,RA_OF_ASC_NODE,ARG_OF_PERICENTER,MEAN_ANOMALY,EPHEMERIS_TYPE,CLASSIFICATION_TYPE,NORAD_CAT_ID,ELEMENT_SET_NO,REV_AT_EPOCH,BSTAR,MEAN_MOTION_DOT,MEAN_MOTION_DDOT
STARLINK-5928,2023-037AW,2026-07-16T06:35:19.092192,14.98341861,.00025261,70.0029,300.2616,262.0125,98.0747,0,U,55958,999,18373,.41758865E-4,.406E-5,0
STARLINK-5929,2023-037AX,2026-07-15T12:51:50.773248,14.98330089,.00033962,69.9999,302.0976,269.5286,90.5484,0,U,55959,999,18362,.5250266E-5,-.3E-6,0
STARLINK-5938,2023-037AY,2026-07-16T06:47:37.488192,14.98325137,.00031082,70.0000,300.2734,275.4418,84.6387,0,U,55960,999,18373,.64218302E-4,.673E-5,0
STARLINK-5933,2023-037AZ,2026-07-16T06:11:17.367360,14.98331104,.00033953,69.9996,300.2014,269.9138,90.1632,0,U,55961,999,18373,.25458587E-4,.211E-5,0
STARLINK-5906,2023-037BA,2026-07-16T07:05:23.234784,14.98330144,.00034122,70.0001,300.3296,268.0686,92.0082,0,U,55962,999,18373,.4337704E-4,.425E-5,0
STARLINK-5924,2023-037BB,2026-07-16T06:23:18.936096,14.98315652,.00036998,69.9997,300.2312,273.2197,86.8539,0,U,55963,999,18373,.62854179E-4,.657E-5,0
STARLINK-5895,2023-037BC,2026-07-16T05:30:22.907520,15.11409703,.00011828,69.9964,290.8447,185.4498,174.6655,0,U,55964,999,18396,.30967381E-3,.514E-4,0
STARLINK-5894,2023-037BD,2026-07-16T05:59:16.838016,14.98325101,.00034901,69.9997,300.1717,268.6848,91.3911,0,U,55965,999,18373,-.21130512E-4,-.345E-5,0
SES-18,2023-038A,2026-07-16T07:13:36.100992,1.00270401,.00007622,0.0500,251.5469,313.9977,93.8933,0,U,55970,999,1239,0,-.111E-5,0
SES-19,2023-038B,2026-07-15T12:43:42.919104,1.00269536,.0001517,0.0103,1.5399,111.9485,235.9011,0,U,55971,999,1237,0,.78E-6,0
TIANMU-1 03,2023-039A,2026-07-16T06:34:37.107840,15.48060905,.00024938,97.5239,12.4008,23.7292,336.4073,0,U,55973,999,18533,.15657752E-3,.8103E-4,0
TIANMU-1 04,2023-039B,2026-07-16T07:35:57.925824,15.48689089,.00029176,97.5180,11.6012,8.4789,351.6510,0,U,55974,999,18535,.16343466E-3,.8651E-4,0
TIANMU-1 05,2023-039C,2026-07-16T07:42:03.661344,15.47987306,.00028621,97.5225,12.0535,42.7704,317.3769,0,U,55975,999,18532,.16277311E-3,.8406E-4,0
TIANMU-1 06,2023-039D,2026-07-16T07:43:32.288736,15.48586107,.00029556,97.5232,12.7199,33.7195,326.4242,0,U,55976,999,18535,.16551781E-3,.8731E-4,0
COSMOS 2567,2023-040A,2026-07-16T07:02:41.341056,15.25078545,.00018673,97.5880,123.8363,57.3829,302.7588,0,U,55978,999,18449,.74739286E-4,.1794E-4,0
GLOBAL-19,2023-041B,2026-07-15T22:11:17.054880,15.38694225,.0009785,42.0023,34.2193,222.9817,137.0259,0,U,55982,999,18635,.20145E-3,.7625E-4,0
GLOBAL-5,2023-041C,2026-07-16T00:31:47.686080,15.38709009,.00086565,42.0015,33.1751,218.8802,141.1416,0,U,55983,999,18637,.21722015E-3,.8246E-4,0
STARLINK-5905,2023-042A,2026-07-16T06:54:25.153632,15.27579178,.00010278,43.0018,53.6163,272.9044,87.1690,0,U,55986,999,18335,.24660541E-4,.417E-5,0
STARLINK-5915,2023-042B,2026-07-16T00:08:11.321376,15.27579446,.00017512,43.0057,54.9577,273.5831,86.4821,0,U,55987,999,18249,.11479996E-4,.54E-6,0
STARLINK-5916,2023-042C,2026-07-15T23:47:20.688288,15.27576028,.00008612,43.0051,59.1225,242.9206,117.1558,0,U,55988,999,18244,.3957165E-4,.827E-5,0
STARLINK-5947,2023-042D,2026-07-16T00:02:39.487488,15.27574780,.00032832,43.0085,54.9318,276.9097,83.1381,0,U,55989,999,18249,.7279064E-4,.174E-4,0
STARLINK-5946,2023-042E,2026-07-15T23:47:50.909280,15.27572886,.00006364,43.0017,54.8562,283.3224,76.7557,0,U,55990,999,18249,.1369892E-5,-.224E-5,0
STARLINK-5948,2023-042F,2026-07-16T00:05:11.872032,15.27576851,.00019193,43.0020,51.5318,256.6011,103.4627,0,U,55991,999,18253,.2302374E-4,.371E-5,0
STARLINK-5969,2023-042H,2026-07-15T23:57:05.660352,15.27571220,.00016508,43.0064,54.9019,263.6865,96.3799,0,U,55993,999,18249,-.64724721E-4,-.2042E-4,0
STARLINK-5956,2023-042J,2026-07-16T00:13:45.937344,15.27587715,.00024916,42.9959,54.9944,30.9429,329.1569,0,U,55994,999,18249,.5584419E-5,-.109E-5,0
STARLINK-5903,2023-042L,2026-07-15T23:40:26.320800,15.27575133,.00013039,43.0053,54.8135,265.6889,94.3814,0,U,55996,999,18248,.25414716E-4,.437E-5,0
STARLINK-5902,2023-042N,2026-07-15T23:45:59.118912,15.27576617,.00014085,43.0036,54.8385,265.9545,94.1146,0,U,55998,999,18249,.1638882E-5,-.217E-5,0
STARLINK-5901,2023-042P,2026-07-15T16:34:03.882144,15.27576498,.00014301,43.0027,56.8809,258.5851,101.4840,0,U,55999,999,18244,.3220418E-5,-.174E-5,0
STARLINK-5910,2023-042Q,2026-07-16T00:00:46.765728,15.27578660,.00026565,43.0081,54.9076,275.6632,84.3917,0,U,56000,999,18249,.41795792E-4,.887E-5,0
STARLINK-5944,2023-042R,2026-07-15T00:20:32.889984,15.27573998,.00013213,43.0052,64.6780,275.7709,84.2992,0,U,56001,999,18229,-.23754812E-4,-.916E-5,0
