STARLINK-5928           
1 55958U 23037AW  26197.27452653  .00000406  00000+0  41759-4 0  9995
2 55958  70.0029 300.2616 0002526 262.0125  98.0747 14.98341861183735
STARLINK-5929           
1 55959U 23037AX  26196.53600432 -.00000030  00000+0  52503-5 0  9998
2 55959  69.9999 302.0976 0003396 269.5286  90.5484 14.98330089183627
STARLINK-5938           
1 55960U 23037AY  26197.28307278  .00000673  00000+0  64218-4 0  9992
2 55960  70.0000 300.2734 0003108 275.4418  84.6387 14.98325137183737
STARLINK-5933           
1 55961U 23037AZ  26197.25783990  .00000211  00000+0  25459-4 0  9991
2 55961  69.9996 300.2014 0003395 269.9138  90.1632 14.98331104183731
STARLINK-5906           
1 55962U 23037BA  26197.29540781  .00000425  00000+0  43377-4 0  9991
2 55962  70.0001 300.3296 0003412 268.0686  92.0082 14.98330144183736
STARLINK-5924           
1 55963U 23037BB  26197.26619139  .00000657  00000+0  62854-4 0  9991
2 55963  69.9997 300.2312 0003699 273.2197  86.8539 14.98315652183733
STARLINK-5895           
1 55964U 23037BC  26197.22943180  .00005140  00000+0  30967-3 0  9995
2 55964  69.9964 290.8447 0001182 185.4498 174.6655 15.11409703183961
STARLINK-5894           
1 55965U 23037BD  26197.24950044 -.00000345  00000+0 -21131-4 0  9993
2 55965  69.9997 300.1717 0003490 268.6848  91.3911 14.98325101183738
SES-18                  
1 55970U 23038A   26197.30111228 -.00000111  00000+0  00000+0 0  9997
2 55970   0.0500 251.5469 0000762 313.9977  93.8933  1.00270401 12394
SES-19                  
1 55971U 23038B   26196.53035786  .00000078  00000+0  00000+0 0  9997
2 55971   0.0103   1.5399 0001517 111.9485 235.9011  1.00269536 12379
TIANMU-1 03             
1 55973U 23039A   26197.27404060  .00008103  00000+0  15658-3 0  9993
2 55973  97.5239  12.4008 0002493  23.7292 336.4073 15.48060905185338
TIANMU-1 04             
1 55974U 23039B   26197.31664266  .00008651  00000+0  16343-3 0  9995
2 55974  97.5180  11.6012 0002917   8.4789 351.6510 15.48689089185359
TIANMU-1 05             
1 55975U 23039C   26197.32087571  .00008406  00000+0  16277-3 0  9999
2 55975  97.5225  12.0535 0002862  42.7704 317.3769 15.47987306185326
TIANMU-1 06             
1 55976U 23039D   26197.32190149  .00008731  00000+0  16552-3 0  9993
2 55976  97.5232  12.7199 0002955  33.7195 326.4242 15.48586107185350
COSMOS 2567             
1 55978U 23040A   26197.29353404  .00001794  00000+0  74739-4 0  9992
2 55978  97.5880 123.8363 0001867  57.3829 302.7588 15.25078545184496
GLOBAL-19               
1 55982U 23041B   26196.92450295  .00007625  00000+0  20145-3 0  9993
2 55982  42.0023  34.2193 0009785 222.9817 137.0259 15.38694225186359
GLOBAL-5                
1 55983U 23041C   26197.02207970  .00008246  00000+0  21722-3 0  9998
2 55983  42.0015  33.1751 0008656 218.8802 141.1416 15.38709009186373
STARLINK-5905           
1 55986U 23042A   26197.28779113  .00000417  00000+0  24661-4 0  9991
2 55986  43.0018  53.6163 0001027 272.9044  87.1690 15.27579178183356
STARLINK-5915           
1 55987U 23042B   26197.00568659  .00000054  00000+0  11480-4 0  9995
2 55987  43.0057  54.9577 0001751 273.5831  86.4821 15.27579446182498
STARLINK-5916           
1 55988U 23042C   26196.99121167  .00000827  00000+0  39572-4 0  9992
2 55988  43.0051  59.1225 0000861 242.9206 117.1558 15.27576028182444
STARLINK-5947           
1 55989U 23042D   26197.00184592  .00001740  00000+0  72791-4 0  9992
2 55989  43.0085  54.9318 0003283 276.9097  83.1381 15.27574780182498
STARLINK-5946           
1 55990U 23042E   26196.99156145 -.00000224  00000+0  13699-5 0  9994
2 55990  43.0017  54.8562 0000636 283.3224  76.7557 15.27572886182496
STARLINK-5948           
1 55991U 23042F   26197.00360963  .00000371  00000+0  23024-4 0  9997
2 55991  43.0020  51.5318 0001919 256.6011 103.4627 15.27576851182533
STARLINK-5969           
1 55993U 23042H   26196.99798218 -.00002042  00000+0 -64725-4 0  9996
2 55993  43.0064  54.9019 0001650 263.6865  96.3799 15.27571220182495
STARLINK-5956           
1 55994U 23042J   26197.00955946 -.00000109  00000+0  55844-5 0  9997
2 55994  42.9959  54.9944 0002491  30.9429 329.1569 15.27587715182497
STARLINK-5903           
1 55996U 23042L   26196.98641575  .00000437  00000+0  25415-4 0  9998
2 55996  43.0053  54.8135 0001303 265.6889  94.3814 15.27575133182489
STARLINK-5902           
1 55998U 23042N   26196.99026758 -.00000217  00000+0  16389-5 0  9999
2 55998  43.0036  54.8385 0001408 265.9545  94.1146 15.27576617182492
STARLINK-5901           
1 55999U 23042P   26196.69032271 -.00000174  00000+0  32204-5 0  9990
2 55999  43.0027  56.8809 0001430 258.5851 101.4840 15.27576498182444
STARLINK-5910           
1 56000U 23042Q   26197.00054127  .00000887  00000+0  41796-4 0  9999
2 56000  43.0081  54.9076 0002656 275.6632  84.3917 15.27578660182493
STARLINK-5944           
1 56001U 23042R   26196.01426956 -.00000916  00000+0 -23755-4 0  9993
2 56001  43.0052  64.6780 0001321 275.7709  84.2992 15.27573998182295
